{"type": "FeatureCollection", "features": [ {"type": "Feature", "properties": {"norad_id": 40118, "name": "GAOFEN-2", "group": "resource", "lat": -17.041019353887087, "lon": -130.64573793973105, "alt_km": 633.4333276706357, "timestamp": "2025-12-18T15:47:10.877525+00:00", "meta": {"OBJECT_NAME": "GAOFEN-2", "OBJECT_ID": "2014-049A", "EPOCH": "2025-12-18T06:47:24.611136", "MEAN_MOTION": 14.80620503, "ECCENTRICITY": 0.00087102, "INCLINATION": 98.0384, "RA_OF_ASC_NODE": 51.4614, "ARG_OF_PERICENTER": 97.6083, "MEAN_ANOMALY": 262.6119, "EPHEMERIS_TYPE": 0, "CLASSIFICATION_TYPE": "U", "NORAD_CAT_ID": 40118, "ELEMENT_SET_NO": 999, "REV_AT_EPOCH": 61246, "BSTAR": 0.00013072291, "MEAN_MOTION_DOT": 9.5e-06, "MEAN_MOTION_DDOT": 0}, "tle": {"line1": "1 40118U 14049A   25352.28292374  .00000950  00000+0  13072-3 0  9995", "line2": "2 40118  98.0384  51.4614 0008710  97.6083 262.6119 14.80620503612463"}}, "geometry": {"type": "Point", "coordinates": [-130.64573793973105, -17.041019353887087]}}, {"type": "Feature", "properties": {"norad_id": 40143, "name": "YAOGAN-21", "group": "resource", "lat": -3.3072845895892327, "lon": 36.13087844839965, "alt_km": 492.3867714656353, "timestamp": "2025-12-18T15:47:10.877534+00:00", "meta": {"OBJECT_NAME": "YAOGAN-21", "OBJECT_ID": "2014-053A", "EPOCH": "2025-12-18T06:20:39.776928", "MEAN_MOTION": 15.23734277, "ECCENTRICITY": 0.00091981, "INCLINATION": 97.1753, "RA_OF_ASC_NODE": 35.3374, "ARG_OF_PERICENTER": 23.5829, "MEAN_ANOMALY": 336.5828, "EPHEMERIS_TYPE": 0, "CLASSIFICATION_TYPE": "U", "NORAD_CAT_ID": 40143, "ELEMENT_SET_NO": 999, "REV_AT_EPOCH": 62738, "BSTAR": 0.00020957293, "MEAN_MOTION_DOT": 4.974e-05, "MEAN_MOTION_DDOT": 0}, "tle": {"line1": "1 40143U 14053A   25352.26434927  .00004974  00000+0  20957-3 0  9998", "line2": "2 40143  97.1753  35.3374 0009198  23.5829 336.5828 15.23734277627389"}}, "geometry": {"type": "Point", "coordinates": [36.13087844839965, -3.3072845895892327]}}, {"type": "Feature", "properties": {"norad_id": 40275, "name": "YAOGAN-22", "group": "resource", "lat": 77.68535068330829, "lon": 75.75220655161354, "alt_km": 1198.4236421643964, "timestamp": "2025-12-18T15:47:10.877544+00:00", "meta": {"OBJECT_NAME": "YAOGAN-22", "OBJECT_ID": "2014-063A", "EPOCH": "2025-12-18T06:14:04.433856", "MEAN_MOTION": 13.15522919, "ECCENTRICITY": 0.00059952, "INCLINATION": 100.7425, "RA_OF_ASC_NODE": 135.7573, "ARG_OF_PERICENTER": 234.7476, "MEAN_ANOMALY": 125.3074, "EPHEMERIS_TYPE": 0, "CLASSIFICATION_TYPE": "U", "NORAD_CAT_ID": 40275, "ELEMENT_SET_NO": 999, "REV_AT_EPOCH": 53602, "BSTAR": 1.859078e-05, "MEAN_MOTION_DOT": -4e-07, "MEAN_MOTION_DDOT": 0}, "tle": {"line1": "1 40275U 14063A   25352.25977354 -.00000040  00000+0  18591-4 0  9993", "line2": "2 40275 100.7425 135.7573 0005995 234.7476 125.3074 13.15522919536027"}}, "geometry": {"type": "Point", "coordinates": [75.75220655161354, 77.68535068330829]}}, {"type": "Feature", "properties": {"norad_id": 40298, "name": "ASNARO", "group": "resource", "lat": -43.1701360189132, "lon": 75.4294677387195, "alt_km": 517.0996767013839, "timestamp": "2025-12-18T15:47:10.877554+00:00", "meta": {"OBJECT_NAME": "ASNARO", "OBJECT_ID": "2014-070A", "EPOCH": "2025-12-18T06:29:45.315168", "MEAN_MOTION": 15.19608385, "ECCENTRICITY": 0.00056869, "INCLINATION": 97.3653, "RA_OF_ASC_NODE": 68.0822, "ARG_OF_PERICENTER": 107.4653, "MEAN_ANOMALY": 252.7204, "EPHEMERIS_TYPE": 0, "CLASSIFICATION_TYPE": "U", "NORAD_CAT_ID": 40298, "ELEMENT_SET_NO": 999, "REV_AT_EPOCH": 61653, "BSTAR": 0.00037479028, "MEAN_MOTION_DOT": 7.92e-05, "MEAN_MOTION_DDOT": 0}, "tle": {"line1": "1 40298U 14070A   25352.27066337  .00007920  00000+0  37479-3 0  9996", "line2": "2 40298  97.3653  68.0822 0005686 107.4653 252.7204 15.19608385616534"}}, "geometry": {"type": "Point", "coordinates": [75.4294677387195, -43.1701360189132]}}, {"type": "Feature", "properties": {"norad_id": 40310, "name": "YAOGAN-24", "group": "resource", "lat": 81.10679736562466, "lon": 57.9137136478636, "alt_km": 625.2017714556678, "timestamp": "2025-12-18T15:47:10.877564+00:00", "meta": {"OBJECT_NAME": "YAOGAN-24", "OBJECT_ID": "2014-072A", "EPOCH": "2025-12-18T07:15:46.196928", "MEAN_MOTION": 14.76188483, "ECCENTRICITY": 0.0014955, "INCLINATION": 98.1215, "RA_OF_ASC_NODE": 123.4251, "ARG_OF_PERICENTER": 121.2406, "MEAN_ANOMALY": 239.0271, "EPHEMERIS_TYPE": 0, "CLASSIFICATION_TYPE": "U", "NORAD_CAT_ID": 40310, "ELEMENT_SET_NO": 999, "REV_AT_EPOCH": 59703, "BSTAR": 0.00010269925, "MEAN_MOTION_DOT": 6.58e-06, "MEAN_MOTION_DDOT": 0}, "tle": {"line1": "1 40310U 14072A   25352.30261802  .00000658  00000+0  10270-3 0  9992", "line2": "2 40310  98.1215 123.4251 0014955 121.2406 239.0271 14.76188483597032"}}, "geometry": {"type": "Point", "coordinates": [57.9137136478636, 81.10679736562466]}}, {"type": "Feature", "properties": {"norad_id": 40336, "name": "CBERS 4", "group": "resource", "lat": 41.27852027554042, "lon": 43.0819937420664, "alt_km": 769.4718176696715, "timestamp": "2025-12-18T15:47:10.877574+00:00", "meta": {"OBJECT_NAME": "CBERS 4", "OBJECT_ID": "2014-079A", "EPOCH": "2025-12-18T07:13:40.917792", "MEAN_MOTION": 14.35519297, "ECCENTRICITY": 0.00017517, "INCLINATION": 98.3308, "RA_OF_ASC_NODE": 50.1281, "ARG_OF_PERICENTER": 107.2502, "MEAN_ANOMALY": 252.8876, "EPHEMERIS_TYPE": 0, "CLASSIFICATION_TYPE": "U", "NORAD_CAT_ID": 40336, "ELEMENT_SET_NO": 999, "REV_AT_EPOCH": 57800, "BSTAR": 1.7219627e-05, "MEAN_MOTION_DOT": 7e-08, "MEAN_MOTION_DDOT": 0}, "tle": {"line1": "1 40336U 14079A   25352.30116803  .00000007  00000+0  17220-4 0  9998", "line2": "2 40336  98.3308  50.1281 0001751 107.2502 252.8876 14.35519297578001"}}, "geometry": {"type": "Point", "coordinates": [43.0819937420664, 41.27852027554042]}}, {"type": "Feature", "properties": {"norad_id": 40362, "name": "YAOGAN-26", "group": "resource", "lat": 45.02623331235462, "lon": -14.00760464983381, "alt_km": 440.6683571627964, "timestamp": "2025-12-18T15:47:10.877584+00:00", "meta": {"OBJECT_NAME": "YAOGAN-26", "OBJECT_ID": "2014-088A", "EPOCH": "2025-12-18T06:13:47.788896", "MEAN_MOTION": 15.39496041, "ECCENTRICITY": 0.00054535, "INCLINATION": 97.0636, "RA_OF_ASC_NODE": 352.7378, "ARG_OF_PERICENTER": 13.5858, "MEAN_ANOMALY": 346.5535, "EPHEMERIS_TYPE": 0, "CLASSIFICATION_TYPE": "U", "NORAD_CAT_ID": 40362, "ELEMENT_SET_NO": 999, "REV_AT_EPOCH": 60979, "BSTAR": 0.00048146445, "MEAN_MOTION_DOT": 0.00018847, "MEAN_MOTION_DDOT": 0}, "tle": {"line1": "1 40362U 14088A   25352.25958089  .00018847  00000+0  48146-3 0  9992", "line2": "2 40362  97.0636 352.7378 0005453  13.5858 346.5535 15.39496041609794"}}, "geometry": {"type": "Point", "coordinates": [-14.00760464983381, 45.02623331235462]}}, {"type": "Feature", "properties": {"norad_id": 40376, "name": "SMAP", "group": "resource", "lat": 62.0861421106979, "lon": -167.05210790430394, "alt_km": 675.5540315518556, "timestamp": "2025-12-18T15:47:10.877595+00:00", "meta": {"OBJECT_NAME": "SMAP", "OBJECT_ID": "2015-003A", "EPOCH": "2025-12-18T05:24:30.698784", "MEAN_MOTION": 14.6335199, "ECCENTRICITY": 0.00012161, "INCLINATION": 98.1288, "RA_OF_ASC_NODE": 356.8701, "ARG_OF_PERICENTER": 91.1406, "MEAN_ANOMALY": 268.9936, "EPHEMERIS_TYPE": 0, "CLASSIFICATION_TYPE": "U", "NORAD_CAT_ID": 40376, "ELEMENT_SET_NO": 999, "REV_AT_EPOCH": 58115, "BSTAR": 9.8047665e-05, "MEAN_MOTION_DOT": 4.6e-06, "MEAN_MOTION_DDOT": 0}, "tle": {"line1": "1 40376U 15003A   25352.22535531  .00000460  00000+0  98048-4 0  9994", "line2": "2 40376  98.1288 356.8701 0001216  91.1406 268.9936 14.63351990581153"}}, "geometry": {"type": "Point", "coordinates": [-167.05210790430394, 62.0861421106979]}}, {"type": "Feature", "properties": {"norad_id": 40536, "name": "KOMPSAT-3A", "group": "resource", "lat": 80.92363495244334, "lon": -90.29410855750066, "alt_km": 423.2514129983747, "timestamp": "2025-12-18T15:47:10.877605+00:00", "meta": {"OBJECT_NAME": "KOMPSAT-3A", "OBJECT_ID": "2015-014A", "EPOCH": "2025-12-18T06:05:15.124128", "MEAN_MOTION": 15.44145175, "ECCENTRICITY": 0.00052778, "INCLINATION": 97.6786, "RA_OF_ASC_NODE": 326.9053, "ARG_OF_PERICENTER": 114.5616, "MEAN_ANOMALY": 245.6182, "EPHEMERIS_TYPE": 0, "CLASSIFICATION_TYPE": "U", "NORAD_CAT_ID": 40536, "ELEMENT_SET_NO": 999, "REV_AT_EPOCH": 59380, "BSTAR": 0.00038982024, "MEAN_MOTION_DOT": 0.00017786, "MEAN_MOTION_DDOT": 0}, "tle": {"line1": "1 40536U 15014A   25352.25364727  .00017786  00000+0  38982-3 0  9993", "line2": "2 40536  97.6786 326.9053 0005277 114.5616 245.6182 15.44145175593806"}}, "geometry": {"type": "Point", "coordinates": [-90.29410855750066, 80.92363495244334]}}, {"type": "Feature", "properties": {"norad_id": 40697, "name": "SENTINEL-2A", "group": "resource", "lat": 12.805322487659874, "lon": 63.14114383492773, "alt_km": 789.9511486851425, "timestamp": "2025-12-18T15:47:10.877615+00:00", "meta": {"OBJECT_NAME": "SENTINEL-2A", "OBJECT_ID": "2015-028A", "EPOCH": "2025-12-18T07:20:03.592032", "MEAN_MOTION": 14.30807747, "ECCENTRICITY": 0.00010526, "INCLINATION": 98.5745, "RA_OF_ASC_NODE": 64.7591, "ARG_OF_PERICENTER": 88.3188, "MEAN_ANOMALY": 271.8115, "EPHEMERIS_TYPE": 0, "CLASSIFICATION_TYPE": "U", "NORAD_CAT_ID": 40697, "ELEMENT_SET_NO": 999, "REV_AT_EPOCH": 54786, "BSTAR": 8.9129703e-05, "MEAN_MOTION_DOT": 1.9e-06, "MEAN_MOTION_DDOT": 0}, "tle": {"line1": "1 40697U 15028A   25352.30559713  .00000190  00000+0  89130-4 0  9996", "line2": "2 40697  98.5745  64.7591 0001052  88.3188 271.8115 14.30807747547868"}}, "geometry": {"type": "Point", "coordinates": [63.14114383492773, 12.805322487659874]}}]}